IRIDIUM 159             
1 43578U 18061K   25317.48197236  .00000054  00000+0  12373-4 0  9999
2 43578  86.3966 146.8910 0002205  87.4342 272.7106 14.34217765382461
IRIDIUM 180             
1 43922U 19002A   25317.62100426  .00000313  00000+0  10461-3 0  9992
2 43922  86.3949  83.7141 0002053  89.9664 270.1767 14.34219631358096
IRIDIUM 176             
1 43923U 19002B   25317.42950130  .00002978  00000+0  46847-3 0  9992
2 43923  86.6072  83.7689 0001859  89.9305 270.2125 14.72234441367502
IRIDIUM 168             
1 43924U 19002C   25317.61466169  .00000341  00000+0  11480-3 0  9995
2 43924  86.3952  83.7881 0001993  91.8132 268.3292 14.34219723358079
IRIDIUM 173             
1 43925U 19002D   25317.46243861  .00000031  00000+0  39473-5 0  9991
2 43925  86.3950  83.7492 0001876  87.9447 272.1964 14.34221452358038
IRIDIUM 169             
1 43926U 19002E   25317.69890387  .00000333  00000+0  10235-3 0  9996
2 43926  86.4201 115.3016 0001159  57.8914 302.2396 14.38611774359244
IRIDIUM 172             
1 43927U 19002F   25317.59563405  .00000384  00000+0  13009-3 0  9992
2 43927  86.3948  83.7008 0002276  90.2280 269.9176 14.34219790358061
IRIDIUM 175             
1 43928U 19002G   25317.49265558  .00002638  00000+0  41422-3 0  9994
2 43928  86.1526  27.7966 0002269 114.0387 246.1067 14.72258082367502
